NAVSTAR 77 (USA 289)    
1 43873U 18109A   24197.25103477 -.00000011  00000+0  00000+0 0  9997
2 43873  55.3068 119.9198 0029386 194.3147 337.9470  2.00557424 40993
